NORAD_CAT_ID,OBJECT_NAME,OBJECT_TYPE,EPOCH,MEAN_MOTION,ECCENTRICITY,INCLINATION,RA_OF_ASC_NODE,ARG_OF_PERICENTER,MEAN_ANOMALY,BSTAR,MEAN_MOTION_DOT,MEAN_MOTION_DDOT,TLE_LINE0,TLE_LINE1,TLE_LINE2,SEMIMAJOR_AXIS,PERIOD,APOGEE,PERIGEE,DECAYED
54064.0,STARLINK-5172,PAYLOAD,2023-07-27 14:08:04,15.08846158,9.83e-05,53.2152,271.4069,103.4306,256.6796,3.063e-05,2e-06,0.0,0 STARLINK-5172,1 54064U 22136P   23208.58894544  .00000200  00000-0  30630-4 0  9993,2 54064  53.2152 271.4069 0000983 103.4306 256.6796 15.08846158 43616,6917.862,95.437,540.407,539.047,0.0
54064.0,STARLINK-5172,PAYLOAD,2023-07-28 04:26:34,15.08835936,0.0001174,53.2137,268.7258,115.9668,244.1445,-7.8751e-05,-1.541e-05,0.0,0 STARLINK-5172,1 54064U 22136P   23209.18511685 -.00001541  00000-0 -78751-4 0  9999,2 54064  53.2137 268.7258 0001174 115.9668 244.1445 15.08835936 43705,6917.893,95.438,540.57,538.946,0.0
54064.0,STARLINK-5172,PAYLOAD,2023-07-28 12:23:29,15.08834137,0.0001139,53.2143,267.2412,100.0955,260.0166,-6.9275e-05,-1.39e-05,0.0,0 STARLINK-5172,1 54064U 22136P   23209.51631909 -.00001390  00000-0 -69275-4 0  9991,2 54064  53.2143 267.2412 0001139 100.0955 260.0166 15.08834137 43274,6917.898,95.438,540.551,538.975,0.0
54064.0,STARLINK-5172,PAYLOAD,2023-07-29 09:03:30,15.08840089,0.0001235,53.2161,263.377,105.087,255.0259,-3.9403e-05,-9.15e-06,0.0,0 STARLINK-5172,1 54064U 22136P   23210.37743627 -.00000915  00000-0 -39403-4 0  9990,2 54064  53.2161 263.3770 0001235 105.0870 255.0259 15.08840089 43883,6917.88,95.438,540.599,538.891,0.0
54064.0,STARLINK-5172,PAYLOAD,2023-07-30 08:54:17,15.08831973,0.0001176,53.216,258.917,100.832,259.2804,4.487e-05,4.26e-06,0.0,0 STARLINK-5172,1 54064U 22136P   23211.37104143  .00000426  00000-0  44870-4 0  9994,2 54064  53.2160 258.9170 0001176 100.8320 259.2804 15.08831973 44035,6917.905,95.438,540.583,538.956,0.0
54064.0,STARLINK-5172,PAYLOAD,2023-07-31 10:20:27,15.08840932,0.0001174,53.2162,254.1592,93.8568,266.2558,3.3468e-05,2.45e-06,0.0,0 STARLINK-5172,1 54064U 22136P   23212.43087836  .00000245  00000-0  33468-4 0  9991,2 54064  53.2162 254.1592 0001174  93.8568 266.2558 15.08840932 44192,6917.878,95.437,540.555,538.93,0.0
54064.0,STARLINK-5172,PAYLOAD,2023-08-02 02:05:06,15.08839971,0.0001148,53.2153,246.7244,86.7346,273.3778,1.0776e-05,-1.16e-06,0.0,0 STARLINK-5172,1 54064U 22136P   23214.08687877 -.00000116  00000-0  10776-4 0  9990,2 54064  53.2153 246.7244 0001148  86.7346 273.3778 15.08839971 44441,6917.88,95.438,540.54,538.951,0.0
54064.0,STARLINK-5172,PAYLOAD,2023-08-03 08:17:25,15.08840284,0.0001205,53.2151,241.0743,87.7827,272.3303,1.1332e-05,-1.07e-06,0.0,0 STARLINK-5172,1 54064U 22136P   23215.34543693 -.00000107  00000-0  11332-4 0  9996,2 54064  53.2151 241.0743 0001205  87.7827 272.3303 15.08840284 44633,6917.88,95.438,540.578,538.911,0.0
54064.0,STARLINK-5172,PAYLOAD,2023-08-04 01:46:40,15.08834427,0.0001246,53.2151,237.8033,88.7782,271.3352,-3.3318e-05,-8.18e-06,0.0,0 STARLINK-5172,1 54064U 22136P   23216.07408253 -.00000818  00000-0 -33318-4 0  9997,2 54064  53.2151 237.8033 0001246  88.7782 271.3352 15.08834427 44741,6917.897,95.438,540.624,538.9,0.0
54064.0,STARLINK-5172,PAYLOAD,2023-08-05 06:23:37,15.08837693,0.0001191,53.2149,232.45,95.7346,264.3782,-5.3772e-06,-3.73e-06,0.0,0 STARLINK-5172,1 54064U 22136P   23217.26640155 -.00000373  00000-0 -53772-5 0  9991,2 54064  53.2149 232.4500 0001191  95.7346 264.3782 15.08837693 44928,6917.887,95.438,540.576,538.929,0.0
54064.0,STARLINK-5172,PAYLOAD,2023-08-06 07:49:47,15.08837119,0.0001191,53.2152,227.6927,98.4521,261.6606,5.3205e-05,5.59e-06,0.0,0 STARLINK-5172,1 54064U 22136P   23218.32624113  .00000559  00000-0  53205-4 0  9999,2 54064  53.2152 227.6927 0001191  98.4521 261.6606 15.08837119 45082,6917.889,95.438,540.578,538.93,0.0
54064.0,STARLINK-5172,PAYLOAD,2023-08-07 01:19:02,15.08833293,0.000124,53.2157,224.4228,100.0921,260.0211,-3.5105e-05,-8.46e-06,0.0,0 STARLINK-5172,1 54064U 22136P   23219.05488911 -.00000846  00000-0 -35105-4 0  9994,2 54064  53.2157 224.4228 0001240 100.0921 260.0211 15.08833293 45191,6917.901,95.438,540.624,538.908,0.0
54064.0,STARLINK-5172,PAYLOAD,2023-08-08 05:55:58,15.08838143,0.0001232,53.2156,219.0702,101.1541,258.9589,8.837e-06,-1.47e-06,0.0,0 STARLINK-5172,1 54064U 22136P   23220.24720737 -.00000147  00000-0  88370-5 0  9998,2 54064  53.2156 219.0702 0001232 101.1541 258.9589 15.08838143 45371,6917.886,95.438,540.603,538.899,0.0
54064.0,STARLINK-5172,PAYLOAD,2023-08-09 01:00:35,15.08842064,0.0001178,53.2156,215.499,90.8793,269.2334,0.00010687,1.413e-05,0.0,0 STARLINK-5172,1 54064U 22136P   23221.04208081  .00001413  00000-0  10687-3 0  9990,2 54064  53.2156 215.4990 0001178  90.8793 269.2334 15.08842064 45495,6917.874,95.437,540.554,538.924,0.0
54064.0,STARLINK-5172,PAYLOAD,2023-08-09 16:54:27,15.08835748,0.0001194,53.2153,212.5247,90.1243,269.9886,5.2315e-06,-2.05e-06,0.0,0 STARLINK-5172,1 54064U 22136P   23221.70448718 -.00000205  00000-0  52315-5 0  9991,2 54064  53.2153 212.5247 0001194  90.1243 269.9886 15.08835748 45597,6917.893,95.438,540.584,538.932,0.0
54064.0,STARLINK-5172,PAYLOAD,2023-08-10 23:06:47,15.0884422,0.0001241,53.214,206.8745,89.2262,270.8872,-2.5086e-05,-6.87e-06,0.0,0 STARLINK-5172,1 54064U 22136P   23222.96304473 -.00000687  00000-0 -25086-4 0  9998,2 54064  53.2140 206.8745 0001241  89.2262 270.8872 15.08844220 45787,6917.867,95.437,540.591,538.874,0.0
54064.0,STARLINK-5172,PAYLOAD,2023-08-12 02:08:20,15.08830984,0.0001197,53.214,201.8193,86.8022,273.3107,3.9849e-05,3.46e-06,0.0,0 STARLINK-5172,1 54064U 22136P   23224.08912975  .00000346  00000-0  39849-4 0  9997,2 54064  53.2140 201.8193 0001197  86.8022 273.3107 15.08830984 45956,6917.908,95.438,540.601,538.945,0.0
54064.0,STARLINK-5172,PAYLOAD,2023-08-13 06:45:17,15.08840742,0.0001299,53.2149,196.4673,87.1638,272.9503,-1.5969e-05,-5.42e-06,0.0,0 STARLINK-5172,1 54064U 22136P   23225.28144747 -.00000542  00000-0 -15969-4 0  9991,2 54064  53.2149 196.4673 0001299  87.1638 272.9503 15.08840742 46136,6917.878,95.438,540.642,538.844,0.0
54064.0,STARLINK-5172,PAYLOAD,2023-08-14 06:36:04,15.08832077,0.0001334,53.2157,192.0067,86.1387,273.9758,-2.1396e-05,-6.28e-06,0.0,0 STARLINK-5172,1 54064U 22136P   23226.27505608 -.00000628  00000-0 -21396-4 0  9994,2 54064  53.2157 192.0067 0001334  86.1387 273.9758 15.08832077 46285,6917.905,95.438,540.692,538.847,0.0
54064.0,STARLINK-5172,PAYLOAD,2023-08-15 08:02:14,15.08836675,0.000147,53.2157,187.2494,87.203,272.9131,4.9848e-05,5.05e-06,0.0,0 STARLINK-5172,1 54064U 22136P   23227.33489423  .00000505  00000-0  49848-4 0  9992,2 54064  53.2157 187.2494 0001470  87.2030 272.9131 15.08836675 46443,6917.891,95.438,540.772,538.739,0.0
54064.0,STARLINK-5172,PAYLOAD,2023-08-17 06:08:25,15.08845834,0.0001423,53.2163,178.6239,91.0317,269.0838,5.1933e-05,5.39e-06,0.0,0 STARLINK-5172,1 54064U 22136P   23229.25584911  .00000539  00000-0  51933-4 0  9998,2 54064  53.2163 178.6239 0001423  91.0317 269.0838 15.08845834 46730,6917.863,95.437,540.712,538.743,0.0
54064.0,STARLINK-5172,PAYLOAD,2023-08-18 02:48:26,15.088408,0.000135,53.2159,174.7587,94.5056,265.6091,-4.2222e-05,-9.6e-06,0.0,0 STARLINK-5172,1 54064U 22136P   23230.11697481 -.00000960  00000-0 -42222-4 0  9993,2 54064  53.2159 174.7587 0001350  94.5056 265.6091 15.08840800 46860,6917.878,95.438,540.677,538.809,0.0
54064.0,STARLINK-5172,PAYLOAD,2023-08-19 05:49:59,15.08846949,0.000143,53.2165,169.7027,102.6856,257.4296,-8.8095e-05,-1.69e-05,0.0,0 STARLINK-5172,1 54064U 22136P   23231.24305231 -.00001690  00000-0 -88095-4 0  9996,2 54064  53.2165 169.7027 0001430 102.6856 257.4296 15.08846949 47034,6917.859,95.437,540.713,538.735,0.0
54064.0,STARLINK-5172,PAYLOAD,2023-08-19 20:08:28,15.08831662,0.0001358,53.2162,167.0261,103.025,257.0894,-6.8637e-05,-1.38e-05,0.0,0 STARLINK-5172,1 54064U 22136P   23231.83922277 -.00001380  00000-0 -68637-4 0  9992,2 54064  53.2162 167.0261 0001358 103.0250 257.0894 15.08831662 47120,6917.906,95.438,540.71,538.831,0.0
54064.0,STARLINK-5172,PAYLOAD,2023-08-21 03:56:10,15.08849643,0.0001331,53.2165,161.0818,98.9113,261.203,4.3169e-05,3.99e-06,0.0,0 STARLINK-5172,1 54064U 22136P   23233.16401035  .00000399  00000-0  43169-4 0  9994,2 54064  53.2165 161.0818 0001331  98.9113 261.2030 15.08849643 47325,6917.851,95.437,540.637,538.795,0.0
54064.0,STARLINK-5172,PAYLOAD,2023-08-22 03:46:58,15.08833677,0.0001319,53.2166,156.6196,88.1018,272.0125,5.4518e-06,-2.01e-06,0.0,0 STARLINK-5172,1 54064U 22136P   23234.15762499 -.00000201  00000-0  54518-5 0  9992,2 54064  53.2166 156.6196 0001319  88.1018 272.0125 15.08833677 47477,6917.9,95.438,540.677,538.852,0.0
54064.0,STARLINK-5172,PAYLOAD,2023-08-23 05:13:08,15.08843957,0.0001367,53.2166,151.8623,81.0721,279.0425,-4.7163e-05,-1.039e-05,0.0,0 STARLINK-5172,1 54064U 22136P   23235.21746407 -.00001039  00000-0 -47163-4 0  9999,2 54064  53.2166 151.8623 0001367  81.0721 279.0425 15.08843957 47635,6917.868,95.437,540.679,538.788,0.0
54064.0,STARLINK-5172,PAYLOAD,2023-08-24 03:28:32,15.08839554,0.0001357,53.2164,147.6989,82.3253,277.7893,5.1131e-05,5.26e-06,0.0,0 STARLINK-5172,1 54064U 22136P   23236.14482519  .00000526  00000-0  51131-4 0  9991,2 54064  53.2164 147.6989 0001357  82.3253 277.7893 15.08839554 47298,6917.882,95.438,540.686,538.808,0.0
54064.0,STARLINK-5172,PAYLOAD,2023-08-25 00:08:33,15.08842296,0.000138,53.2165,143.833,85.0386,275.0763,1.7452e-05,-1e-07,0.0,0 STARLINK-5172,1 54064U 22136P   23237.00594479 -.00000010  00000-0  17452-4 0  9993,2 54064  53.2165 143.8330 0001380  85.0386 275.0763 15.08842296 47902,6917.873,95.437,540.693,538.784,0.0
54064.0,STARLINK-5172,PAYLOAD,2023-08-25 03:19:19,15.08843534,0.000135,53.2165,143.238,89.7667,270.348,2.0636e-05,4.1e-07,0.0,0 STARLINK-5172,1 54064U 22136P   23237.13842327  .00000041  00000-0  20636-4 0  9996,2 54064  53.2165 143.2380 0001350  89.7667 270.3480 15.08843534 47440,6917.87,95.437,540.668,538.801,0.0
